[{"OBJECT_NAME":"QIANFAN-11","OBJECT_ID":"2024-140L","EPOCH":"2026-03-09T23:20:43.861632","MEAN_MOTION":13.51003917,"ECCENTRICITY":0.00130178,"INCLINATION":88.9648,"RA_OF_ASC_NODE":290.1943,"ARG_OF_PERICENTER":311.0772,"MEAN_ANOMALY":48.9254,"EPHEMERIS_TYPE":0,"CLASSIFICATION_TYPE":"U","NORAD_CAT_ID":60389,"ELEMENT_SET_NO":999,"REV_AT_EPOCH":7889,"BSTAR":9.6664645e-5,"MEAN_MOTION_DOT":7.4e-7,"MEAN_MOTION_DDOT":0},{"OBJECT_NAME":"TRANSIT 4B","OBJECT_ID":"1961-031A","EPOCH":"2026-03-09T16:17:24.747360","MEAN_MOTION":13.63783256,"ECCENTRICITY":0.01007906,"INCLINATION":32.4366,"RA_OF_ASC_NODE":140.7211,"ARG_OF_PERICENTER":179.0308,"MEAN_ANOMALY":181.0521,"EPHEMERIS_TYPE":0,"CLASSIFICATION_TYPE":"U","NORAD_CAT_ID":202,"ELEMENT_SET_NO":999,"REV_AT_EPOCH":20740,"BSTAR":8.0152882e-5,"MEAN_MOTION_DOT":9.0e-7,"MEAN_MOTION_DDOT":0}]
